{
  "type": "FeatureCollection",
  "features": [
    {
      "type": "Feature",
      "properties": {
        "norad_id": 32093,
        "name": "FENGYUN 1C DEB",
        "group": "fengyun-1c-debris",
        "lat": 68.2752708534482,
        "lon": 39.83958029124943,
        "alt_km": 776.9180859100788,
        "timestamp": "2025-12-09T21:34:11.693487+00:00",
        "meta_object_name": "FENGYUN 1C DEB",
        "meta_object_id": "1999-025CQK",
        "meta_epoch": "2025-12-07T20:37:24.592224",
        "meta_mean_motion": 14.37587655,
        "meta_eccentricity": 0.00796177,
        "meta_inclination": 98.92,
        "meta_ra_of_asc_node": 194.5105,
        "meta_arg_of_pericenter": 7.885,
        "meta_mean_anomaly": 352.3567,
        "meta_ephemeris_type": 0,
        "meta_classification_type": "U",
        "meta_norad_cat_id": 32093,
        "meta_element_set_no": 999,
        "meta_rev_at_epoch": 96447,
        "meta_bstar": 0.00073708363,
        "meta_mean_motion_dot": 2.245e-05,
        "meta_mean_motion_ddot": 0,
        "tle_line1": "1 32093U 99025CQK 25341.85931241  .00002245  00000+0  73708-3 0  9990",
        "tle_line2": "2 32093  98.9200 194.5105 0079617   7.8850 352.3567 14.37587655964472"
      },
      "geometry": {
        "type": "Point",
        "coordinates": [
          39.83958029124943,
          68.2752708534482
        ]
      }
    },
    {
      "type": "Feature",
      "properties": {
        "norad_id": 32094,
        "name": "FENGYUN 1C DEB",
        "group": "fengyun-1c-debris",
        "lat": 9.904851796830954,
        "lon": 155.92641589776898,
        "alt_km": 865.7023737629261,
        "timestamp": "2025-12-09T21:34:11.693497+00:00",
        "meta_object_name": "FENGYUN 1C DEB",
        "meta_object_id": "1999-025CQL",
        "meta_epoch": "2025-12-06T05:57:03.520224",
        "meta_mean_motion": 14.10713332,
        "meta_eccentricity": 0.00341806,
        "meta_inclination": 98.7429,
        "meta_ra_of_asc_node": 330.8352,
        "meta_arg_of_pericenter": 287.5059,
        "meta_mean_anomaly": 72.2378,
        "meta_ephemeris_type": 0,
        "meta_classification_type": "U",
        "meta_norad_cat_id": 32094,
        "meta_element_set_no": 999,
        "meta_rev_at_epoch": 94273,
        "meta_bstar": 0.00070207748,
        "meta_mean_motion_dot": 1.218e-05,
        "meta_mean_motion_ddot": 0,
        "tle_line1": "1 32094U 99025CQL 25340.24795741  .00001218  00000+0  70208-3 0  9997",
        "tle_line2": "2 32094  98.7429 330.8352 0034180 287.5059  72.2378 14.10713332942734"
      },
      "geometry": {
        "type": "Point",
        "coordinates": [
          155.92641589776898,
          9.904851796830954
        ]
      }
    },
    {
      "type": "Feature",
      "properties": {
        "norad_id": 32095,
        "name": "FENGYUN 1C DEB",
        "group": "fengyun-1c-debris",
        "lat": -70.18834425952127,
        "lon": 24.565266192295883,
        "alt_km": 902.6397297922176,
        "timestamp": "2025-12-09T21:34:11.693507+00:00",
        "meta_object_name": "FENGYUN 1C DEB",
        "meta_object_id": "1999-025CQM",
        "meta_epoch": "2025-12-07T19:02:18.965184",
        "meta_mean_motion": 14.16031541,
        "meta_eccentricity": 0.00791435,
        "meta_inclination": 98.6409,
        "meta_ra_of_asc_node": 357.5555,
        "meta_arg_of_pericenter": 106.1785,
        "meta_mean_anomaly": 254.8118,
        "meta_ephemeris_type": 0,
        "meta_classification_type": "U",
        "meta_norad_cat_id": 32095,
        "meta_element_set_no": 999,
        "meta_rev_at_epoch": 94747,
        "meta_bstar": 0.00045625309,
        "meta_mean_motion_dot": 8.86e-06,
        "meta_mean_motion_ddot": 0,
        "tle_line1": "1 32095U 99025CQM 25341.79327506  .00000886  00000+0  45625-3 0  9994",
        "tle_line2": "2 32095  98.6409 357.5555 0079143 106.1785 254.8118 14.16031541947470"
      },
      "geometry": {
        "type": "Point",
        "coordinates": [
          24.565266192295883,
          -70.18834425952127
        ]
      }
    },
    {
      "type": "Feature",
      "properties": {
        "norad_id": 32096,
        "name": "FENGYUN 1C DEB",
        "group": "fengyun-1c-debris",
        "lat": -17.559465118985262,
        "lon": 15.858685710376818,
        "alt_km": 1027.927822784024,
        "timestamp": "2025-12-09T21:34:11.693517+00:00",
        "meta_object_name": "FENGYUN 1C DEB",
        "meta_object_id": "1999-025CQN",
        "meta_epoch": "2025-12-08T19:44:49.231392",
        "meta_mean_motion": 13.90171929,
        "meta_eccentricity": 0.01347165,
        "meta_inclination": 99.0751,
        "meta_ra_of_asc_node": 11.9097,
        "meta_arg_of_pericenter": 150.4121,
        "meta_mean_anomaly": 210.4747,
        "meta_ephemeris_type": 0,
        "meta_classification_type": "U",
        "meta_norad_cat_id": 32096,
        "meta_element_set_no": 999,
        "meta_rev_at_epoch": 92807,
        "meta_bstar": 0.002090486,
        "meta_mean_motion_dot": 2.74e-05,
        "meta_mean_motion_ddot": 0,
        "tle_line1": "1 32096U 99025CQN 25342.82279203  .00002740  00000+0  20905-2 0  9994",
        "tle_line2": "2 32096  99.0751  11.9097 0134716 150.4121 210.4747 13.90171929928079"
      },
      "geometry": {
        "type": "Point",
        "coordinates": [
          15.858685710376818,
          -17.559465118985262
        ]
      }
    },
    {
      "type": "Feature",
      "properties": {
        "norad_id": 32098,
        "name": "FENGYUN 1C DEB",
        "group": "fengyun-1c-debris",
        "lat": 71.84582140965509,
        "lon": -51.11216615849187,
        "alt_km": 732.907317159691,
        "timestamp": "2025-12-09T21:34:11.693528+00:00",
        "meta_object_name": "FENGYUN 1C DEB",
        "meta_object_id": "1999-025CQQ",
        "meta_epoch": "2025-12-07T16:48:26.372736",
        "meta_mean_motion": 14.20247103,
        "meta_eccentricity": 0.01956961,
        "meta_inclination": 98.6122,
        "meta_ra_of_asc_node": 334.2744,
        "meta_arg_of_pericenter": 134.3457,
        "meta_mean_anomaly": 227.3945,
        "meta_ephemeris_type": 0,
        "meta_classification_type": "U",
        "meta_norad_cat_id": 32098,
        "meta_element_set_no": 999,
        "meta_rev_at_epoch": 64156,
        "meta_bstar": 0.00042642559,
        "meta_mean_motion_dot": 1.061e-05,
        "meta_mean_motion_ddot": 0,
        "tle_line1": "1 32098U 99025CQQ 25341.70030524  .00001061  00000+0  42643-3 0  9992",
        "tle_line2": "2 32098  98.6122 334.2744 0195696 134.3457 227.3945 14.20247103641560"
      },
      "geometry": {
        "type": "Point",
        "coordinates": [
          -51.11216615849187,
          71.84582140965509
        ]
      }
    },
    {
      "type": "Feature",
      "properties": {
        "norad_id": 32099,
        "name": "FENGYUN 1C DEB",
        "group": "fengyun-1c-debris",
        "lat": 53.094610373761135,
        "lon": 147.2156817560121,
        "alt_km": 1146.715242502717,
        "timestamp": "2025-12-09T21:34:11.693538+00:00",
        "meta_object_name": "FENGYUN 1C DEB",
        "meta_object_id": "1999-025CQR",
        "meta_epoch": "2025-12-07T16:21:06.488640",
        "meta_mean_motion": 13.91730648,
        "meta_eccentricity": 0.03431256,
        "meta_inclination": 98.2813,
        "meta_ra_of_asc_node": 314.0479,
        "meta_arg_of_pericenter": 289.2145,
        "meta_mean_anomaly": 254.692,
        "meta_ephemeris_type": 0,
        "meta_classification_type": "U",
        "meta_norad_cat_id": 32099,
        "meta_element_set_no": 999,
        "meta_rev_at_epoch": 64617,
        "meta_bstar": 0.0024627177,
        "meta_mean_motion_dot": 5.024e-05,
        "meta_mean_motion_ddot": 0,
        "tle_line1": "1 32099U 99025CQR 25341.68132510  .00005024  00000+0  24627-2 0  9992",
        "tle_line2": "2 32099  98.2813 314.0479 0343125 289.2145 254.6920 13.91730648646177"
      },
      "geometry": {
        "type": "Point",
        "coordinates": [
          147.2156817560121,
          53.094610373761135
        ]
      }
    },
    {
      "type": "Feature",
      "properties": {
        "norad_id": 32101,
        "name": "FENGYUN 1C DEB",
        "group": "fengyun-1c-debris",
        "lat": 67.77500341597764,
        "lon": 85.89180622014304,
        "alt_km": 944.7971316164858,
        "timestamp": "2025-12-09T21:34:11.693548+00:00",
        "meta_object_name": "FENGYUN 1C DEB",
        "meta_object_id": "1999-025CQT",
        "meta_epoch": "2025-12-09T10:45:18.398304",
        "meta_mean_motion": 14.01619333,
        "meta_eccentricity": 0.01211728,
        "meta_inclination": 99.0311,
        "meta_ra_of_asc_node": 242.5391,
        "meta_arg_of_pericenter": 248.0006,
        "meta_mean_anomaly": 110.8249,
        "meta_ephemeris_type": 0,
        "meta_classification_type": "U",
        "meta_norad_cat_id": 32101,
        "meta_element_set_no": 999,
        "meta_rev_at_epoch": 93136,
        "meta_bstar": 0.0031712237,
        "meta_mean_motion_dot": 5.079e-05,
        "meta_mean_motion_ddot": 0,
        "tle_line1": "1 32101U 99025CQT 25343.44812961  .00005079  00000+0  31712-2 0  9990",
        "tle_line2": "2 32101  99.0311 242.5391 0121172 248.0006 110.8249 14.01619333931360"
      },
      "geometry": {
        "type": "Point",
        "coordinates": [
          85.89180622014304,
          67.77500341597764
        ]
      }
    }
  ]
}